COSMOS 2534 [GLONASS-M] 
1 44299U 19030A   26186.35502329  .00000103  00000+0  00000+0 0  9995
2 44299  64.3703 192.0046 0013524 275.0298 121.8655  2.13102289 55313
BEIDOU-3 IGSO-2         
1 44337U 19035A   26186.60067962 -.00000082  00000+0  00000+0 0  9997
2 44337  55.2499 158.7009 0039710 216.4936 243.6671  1.00261027 25856
NAVSTAR 78 (USA 293)    
1 44506U 19056A   26185.84945336 -.00000070  00000+0  00000+0 0  9990
2 44506  55.6279 330.4419 0062939 197.9329 342.8878  2.00570103 50427
BEIDOU-3 M24            
1 44542U 19061A   26184.88799988  .00000088  00000+0  00000+0 0  9997
2 44542  54.3971 182.1643 0008565 358.8529   1.1460  1.86229350 46108
BEIDOU-3 M23            
1 44543U 19061B   26185.82154656  .00000097  00000+0  00000+0 0  9990
2 44543  54.3962 182.1016 0005863 338.9372 198.4419  1.86227694 46121
EUTELSAT 5 WEST B       
1 44624U 19067A   26186.57573181 -.00000029  00000+0  00000+0 0  9993
2 44624   0.0672 336.1816 0003271 129.0077  20.6424  1.00271435 24629
BEIDOU-3 M22            
1 44793U 19078A   26186.33900177 -.00000058  00000+0  00000+0 0  9997
2 44793  53.9186 299.1895 0005919  49.8012 310.2785  1.86227674 44986
BEIDOU-3 M21            
1 44794U 19078B   26186.47887781 -.00000058  00000+0  00000+0 0  9998
2 44794  53.8912 299.1453 0003863  48.4464 311.6148  1.86228113 44993
COSMOS 2544 [GLONASS-M] 
1 44850U 19088A   26183.51498774 -.00000008  00000+0  00000+0 0  9999
2 44850  65.5733  73.2191 0012628 256.5667 103.3590  2.13103168 51047
BEIDOU-3 M19            
1 44864U 19090A   26186.44468992 -.00000038  00000+0  00000+0 0  9994
2 44864  56.5742  62.1879 0017142 297.2857 237.3269  1.86231783 44576
BEIDOU-3 M20            
1 44865U 19090B   26183.66573100 -.00000037  00000+0  00000+0 0  9993
2 44865  56.5739  62.3139 0015125 311.8646 249.1839  1.86231813 44503
BEIDOU-3 G2             
1 45344U 20017A   26186.59258736 -.00000128  00000+0  00000+0 0  9998
2 45344   2.8993  47.5981 0002512  49.5365 119.8708  1.00271105 23443
COSMOS 2545 [GLONASS-M] 
1 45358U 20018A   26186.52549398 -.00000044  00000+0  00000+0 0  9991
2 45358  64.3433 311.7745 0009061 230.0279 129.9064  2.13102802 49055
BEIDOU-3 G3             
1 45807U 20040A   26186.63870318 -.00000341  00000+0  00000+0 0  9996
2 45807   2.4899  67.4775 0002281 334.5734 222.0681  1.00269837 22254
NAVSTAR 79 (USA 304)    
1 45854U 20041A   26184.41938361 -.00000059  00000+0  00000+0 0  9992
2 45854  56.6609  28.3098 0065536 210.5872 315.2472  2.00558496 44360
GALAXY 30 (G-30)        
1 46114U 20056C   26186.56685059  .00000050  00000+0  00000+0 0  9999
2 46114   0.0183  35.3707 0001999  70.3162 256.9538  1.00273371 21478
COSMOS 2547 [GLONASS-K] 
1 46805U 20075A   26186.24588939  .00000102  00000+0  00000+0 0  9999
2 46805  64.6010 191.8728 0009432 239.8762 120.0573  2.13100192 44299
NAVSTAR 80 (USA 309)    
1 46826U 20078A   26185.21572547  .00000073  00000+0  00000+0 0  9996
2 46826  53.9786 210.0881 0074174 207.5557 150.2596  2.00565046 41843
NAVSTAR 81 (USA 319)    
1 48859U 21054A   26185.96152687 -.00000071  00000+0  00000+0 0  9999
2 48859  55.1656 331.7461 0026095 228.4283 134.2406  2.00567994 37114
QZS-1R (MICHIBIKI-1R)   
1 49336U 21096A   26183.60705221 -.00000270  00000+0  00000+0 0  9994
2 49336  37.4910  79.3557 0755562 272.0387 280.6432  1.00250726 17169
GSAT0223 (GALILEO 27)   
1 49809U 21116A   26184.42092904 -.00000075  00000+0  00000+0 0  9993
2 49809  57.1558 341.2375 0001787 186.7549 176.0990  1.70476367 28464
GSAT0224 (GALILEO 28)   
1 49810U 21116B   26184.81984321 -.00000074  00000+0  00000+0 0  9990
2 49810  57.1559 341.2257 0001573 171.0762 189.2294  1.70476408 28495
COSMOS 2557 [GLONASS-K] 
1 52984U 22075A   26186.41008484 -.00000045  00000+0  00000+0 0  9994
2 52984  64.2870 313.8433 0010498 272.9809  86.9108  2.13102585 31105
COSMOS 2559 [GLONASS-K] 
1 54031U 22130A   26183.88345398 -.00000049  00000+0  00000+0 0  9991
2 54031  64.2611 314.0154 0012880 179.7670 180.2387  2.13101779 29022
COSMOS 2564 [GLONASS-M] 
1 54377U 22161A   26186.54219350  .00000105  00000+0  00000+0 0  9994
2 54377  64.7434 192.1023 0012269 225.1122 134.8159  2.13102024 28027
NAVSTAR 82 (USA 343)    
1 55268U 23009A   26182.76388889  .00000040  00000+0  00000+0 0  9998
2 55268  55.1238 147.9465 0006262 318.3854 293.8670  2.00571084 25533
BEIDOU-3 G4             
1 56564U 23066A   26186.62544701 -.00000268  00000+0  00000+0 0  9990
2 56564   0.4685 336.0507 0005054 178.5378 134.1712  1.00267334 11577
NVS-01 (IRNSS-1J)       
1 56759U 23076A   26186.50876330 -.00000321  00000+0  00000+0 0  9990
2 56759   2.1254 243.5327 0003128   7.9261 344.7692  1.00270137 11292
COSMOS 2569 [GLONASS-K2]
1 57517U 23114A   26186.08526413 -.00000011  00000+0  00000+0 0  9999
2 57517  65.3121  72.0171 0010021 296.4215  63.5433  2.13103774 22642
BEIDOU-3 M28            
1 58654U 23207A   26186.01893222 -.00000039  00000+0  00000+0 0  9993
2 58654  55.7683  61.7017 0002706 358.4998   1.5667  1.86229766 17175
BEIDOU-3 M26            
1 58655U 23207B   26186.35338463 -.00000040  00000+0  00000+0 0  9994
2 58655  55.7709  61.6769 0002358 323.5408  36.5098  1.86229736 17162
