OBJECT_NAME,OBJECT_ID,EPOCH,MEAN_MOTION,ECCENTRICITY,INCLINATION,RA_OF_ASC_NODE,ARG_OF_PERICENTER,MEAN_ANOMALY,EPHEMERIS_TYPE,CLASSIFICATION_TYPE,NORAD_CAT_ID,ELEMENT_SET_NO,REV_AT_EPOCH,BSTAR,MEAN_MOTION_DOT,MEAN_MOTION_DDOT
COSMOS 2534 (758),2019-030A,2026-07-05T08:31:14.012256,2.13102289,.0013524,64.3703,192.0046,275.0298,121.8655,0,U,44299,999,5531,0,.103E-5,0
BEIDOU-3 IGSO-2 (C39),2019-035A,2026-07-05T14:24:58.719168,1.00261027,.00397108,55.2499,158.7009,216.4936,243.6671,0,U,44337,999,2585,0,-.82E-6,0
GPS BIII-2  (PRN 18),2019-056A,2026-07-04T20:23:12.770304,2.00570103,.00629393,55.6279,330.4419,197.9329,342.8878,0,U,44506,999,5042,0,-.7E-6,0
BEIDOU-3 M24 (C46),2019-061A,2026-07-03T21:18:43.189632,1.86229350,.0008565,54.3971,182.1643,358.8529,1.1460,0,U,44542,999,4610,0,.88E-6,0
BEIDOU-3 M23 (C45),2019-061B,2026-07-04T19:43:01.622784,1.86227694,.00058631,54.3962,182.1016,338.9372,198.4419,0,U,44543,999,4612,0,.97E-6,0
EUTELSAT 5 WEST B (EGNOS/PRN 121),2019-067A,2026-07-05T13:49:03.228384,1.00271435,.00032711,0.0672,336.1816,129.0077,20.6424,0,U,44624,999,2462,0,-.29E-6,0
BEIDOU-3 M22 (C44),2019-078A,2026-07-05T08:08:09.752928,1.86227674,.00059194,53.9186,299.1895,49.8012,310.2785,0,U,44793,999,4498,0,-.58E-6,0
BEIDOU-3 M21 (C43),2019-078B,2026-07-05T11:29:35.042784,1.86228113,.00038637,53.8912,299.1453,48.4464,311.6148,0,U,44794,999,4499,0,-.58E-6,0
COSMOS 2544 (759),2019-088A,2026-07-02T12:21:34.940736,2.13103168,.00126282,65.5733,73.2191,256.5667,103.3590,0,U,44850,999,5104,0,-.8E-7,0
BEIDOU-3 M19 (C41),2019-090A,2026-07-05T10:40:21.209088,1.86231783,.00171429,56.5742,62.1879,297.2857,237.3269,0,U,44864,999,4457,0,-.38E-6,0
BEIDOU-3 M20 (C42),2019-090B,2026-07-02T15:58:39.158400,1.86231813,.00151255,56.5739,62.3139,311.8646,249.1839,0,U,44865,999,4450,0,-.37E-6,0
BEIDOU-3 G2 (C60),2020-017A,2026-07-05T14:13:19.547904,1.00271105,.0002512,2.8993,47.5981,49.5365,119.8708,0,U,45344,999,2344,0,-.128E-5,0
COSMOS 2545 (760),2020-018A,2026-07-05T12:36:42.679872,2.13102802,.00090618,64.3433,311.7745,230.0279,129.9064,0,U,45358,999,4905,0,-.44E-6,0
BEIDOU-3 G3 (C61),2020-040A,2026-07-05T15:19:43.954752,1.00269837,.00022811,2.4899,67.4775,334.5734,222.0681,0,U,45807,999,2225,0,-.341E-5,0
GPS BIII-3  (PRN 23),2020-041A,2026-07-03T10:03:54.743904,2.00558496,.00655367,56.6609,28.3098,210.5872,315.2472,0,U,45854,999,4436,0,-.59E-6,0
GALAXY 30 (WAAS/PRN 135),2020-056C,2026-07-05T13:36:15.890976,1.00273371,.00019991,0.0183,35.3707,70.3162,256.9538,0,U,46114,999,2147,0,.5E-6,0
COSMOS 2547 (705K),2020-075A,2026-07-05T05:54:04.843296,2.13100192,.00094326,64.6010,191.8728,239.8762,120.0573,0,U,46805,999,4429,0,.102E-5,0
GPS BIII-4  (PRN 14),2020-078A,2026-07-04T05:10:38.680608,2.00565046,.00741746,53.9786,210.0881,207.5557,150.2596,0,U,46826,999,4184,0,.73E-6,0
GPS BIII-5  (PRN 11),2021-054A,2026-07-04T23:04:35.921568,2.00567994,.00260954,55.1656,331.7461,228.4283,134.2406,0,U,48859,999,3711,0,-.71E-6,0
QZS-1R (QZSS/PRN 196),2021-096A,2026-07-02T14:34:09.310944,1.00250726,.0755562,37.4910,79.3557,272.0387,280.6432,0,U,49336,999,1716,0,-.27E-5,0
GSAT0223 (GALILEO 27),2021-116A,2026-07-03T10:06:08.269056,1.70476367,.0001787,57.1558,341.2375,186.7549,176.0990,0,U,49809,999,2846,0,-.75E-6,0
GSAT0224 (GALILEO 28),2021-116B,2026-07-03T19:40:34.453344,1.70476408,.0001573,57.1559,341.2257,171.0762,189.2294,0,U,49810,999,2849,0,-.74E-6,0
COSMOS 2557 (706K),2022-075A,2026-07-05T09:50:31.330176,2.13102585,.00104982,64.2870,313.8433,272.9809,86.9108,0,U,52984,999,3110,0,-.45E-6,0
COSMOS 2559 (707K),2022-130A,2026-07-02T21:12:10.423872,2.13101779,.001288,64.2611,314.0154,179.7670,180.2387,0,U,54031,999,2902,0,-.49E-6,0
COSMOS 2564 (761),2022-161A,2026-07-05T13:00:45.518400,2.13102024,.00122692,64.7434,192.1023,225.1122,134.8159,0,U,54377,999,2802,0,.105E-5,0
GPS BIII-6  (PRN 28),2023-009A,2026-07-01T18:20:00.000096,2.00571084,.00062623,55.1238,147.9465,318.3854,293.8670,0,U,55268,999,2553,0,.4E-6,0
BEIDOU-3 G4 (C62),2023-066A,2026-07-05T15:00:38.621664,1.00267334,.00050544,0.4685,336.0507,178.5378,134.1712,0,U,56564,999,1157,0,-.268E-5,0
NVS-01 (IRNSS-1J),2023-076A,2026-07-05T12:12:37.149120,1.00270137,.00031287,2.1254,243.5327,7.9261,344.7692,0,U,56759,999,1129,0,-.321E-5,0
COSMOS 2569 (703K),2023-114A,2026-07-05T02:02:46.820832,2.13103774,.00100216,65.3121,72.0171,296.4215,63.5433,0,U,57517,999,2264,0,-.11E-6,0
BEIDOU-3 M28 (C50),2023-207A,2026-07-05T00:27:15.743808,1.86229766,.00027062,55.7683,61.7017,358.4998,1.5667,0,U,58654,999,1717,0,-.39E-6,0
BEIDOU-3 M26 (C48),2023-207B,2026-07-05T08:28:52.432032,1.86229736,.00023581,55.7709,61.6769,323.5408,36.5098,0,U,58655,999,1716,0,-.4E-6,0
